{"type": "FeatureCollection", "features": [ {"type": "Feature", "properties": {"norad_id": 29853, "name": "FENGYUN 1C DEB", "group": "fengyun-1c-debris", "lat": 2.0438967217941673, "lon": 107.58539694726466, "alt_km": 1005.0292149151537, "timestamp": "2025-12-12T05:47:29.042692+00:00", "meta": {"OBJECT_NAME": "FENGYUN 1C DEB", "OBJECT_ID": "1999-025EX", "EPOCH": "2025-12-11T21:10:00.425568", "MEAN_MOTION": 13.93789979, "ECCENTRICITY": 0.01615602, "INCLINATION": 98.4575, "RA_OF_ASC_NODE": 107.5606, "ARG_OF_PERICENTER": 224.951, "MEAN_ANOMALY": 133.8479, "EPHEMERIS_TYPE": 0, "CLASSIFICATION_TYPE": "U", "NORAD_CAT_ID": 29853, "ELEMENT_SET_NO": 999, "REV_AT_EPOCH": 95657, "BSTAR": 0.0020633994, "MEAN_MOTION_DOT": 2.989e-05, "MEAN_MOTION_DDOT": 0}, "tle": {"line1": "1 29853U 99025EX  25345.88194937  .00002989  00000+0  20634-2 0  9994", "line2": "2 29853  98.4575 107.5606 0161560 224.9510 133.8479 13.93789979956576"}}, "geometry": {"type": "Point", "coordinates": [107.58539694726466, 2.0438967217941673]}}, {"type": "Feature", "properties": {"norad_id": 29854, "name": "FENGYUN 1C DEB", "group": "fengyun-1c-debris", "lat": -81.06728121296008, "lon": -122.50181416232296, "alt_km": 1044.110198814762, "timestamp": "2025-12-12T05:47:29.042702+00:00", "meta": {"OBJECT_NAME": "FENGYUN 1C DEB", "OBJECT_ID": "1999-025EY", "EPOCH": "2025-12-11T23:52:11.476128", "MEAN_MOTION": 13.83340609, "ECCENTRICITY": 0.01473464, "INCLINATION": 98.9273, "RA_OF_ASC_NODE": 147.1674, "ARG_OF_PERICENTER": 52.8239, "MEAN_ANOMALY": 70.1429, "EPHEMERIS_TYPE": 0, "CLASSIFICATION_TYPE": "U", "NORAD_CAT_ID": 29854, "ELEMENT_SET_NO": 999, "REV_AT_EPOCH": 95333, "BSTAR": 0.00036468628, "MEAN_MOTION_DOT": 3.95e-06, "MEAN_MOTION_DDOT": 0}, "tle": {"line1": "1 29854U 99025EY  25345.99457727  .00000395  00000+0  36469-3 0  9999", "line2": "2 29854  98.9273 147.1674 0147346  52.8239  70.1429 13.83340609953335"}}, "geometry": {"type": "Point", "coordinates": [-122.50181416232296, -81.06728121296008]}}, {"type": "Feature", "properties": {"norad_id": 29855, "name": "FENGYUN 1C DEB", "group": "fengyun-1c-debris", "lat": 41.97775469689096, "lon": -79.44245590997525, "alt_km": 751.562826410106, "timestamp": "2025-12-12T05:47:29.042713+00:00", "meta": {"OBJECT_NAME": "FENGYUN 1C DEB", "OBJECT_ID": "1999-025EZ", "EPOCH": "2025-12-11T09:35:30.280992", "MEAN_MOTION": 14.0156662, "ECCENTRICITY": 0.01841261, "INCLINATION": 98.1803, "RA_OF_ASC_NODE": 287.2379, "ARG_OF_PERICENTER": 49.9716, "MEAN_ANOMALY": 68.4976, "EPHEMERIS_TYPE": 0, "CLASSIFICATION_TYPE": "U", "NORAD_CAT_ID": 29855, "ELEMENT_SET_NO": 999, "REV_AT_EPOCH": 95693, "BSTAR": 0.0039726432, "MEAN_MOTION_DOT": 6.939e-05, "MEAN_MOTION_DDOT": 0}, "tle": {"line1": "1 29855U 99025EZ  25345.39965603  .00006939  00000+0  39726-2 0  9999", "line2": "2 29855  98.1803 287.2379 0184126  49.9716  68.4976 14.01566620956939"}}, "geometry": {"type": "Point", "coordinates": [-79.44245590997525, 41.97775469689096]}}, {"type": "Feature", "properties": {"norad_id": 29856, "name": "FENGYUN 1C DEB", "group": "fengyun-1c-debris", "lat": -38.66774530708765, "lon": -106.84232015916325, "alt_km": 703.273402252823, "timestamp": "2025-12-12T05:47:29.042722+00:00", "meta": {"OBJECT_NAME": "FENGYUN 1C DEB", "OBJECT_ID": "1999-025FA", "EPOCH": "2025-12-11T17:52:03.576576", "MEAN_MOTION": 14.47705703, "ECCENTRICITY": 0.02625341, "INCLINATION": 98.6883, "RA_OF_ASC_NODE": 79.6754, "ARG_OF_PERICENTER": 300.8883, "MEAN_ANOMALY": 213.3448, "EPHEMERIS_TYPE": 0, "CLASSIFICATION_TYPE": "U", "NORAD_CAT_ID": 29856, "ELEMENT_SET_NO": 999, "REV_AT_EPOCH": 96360, "BSTAR": 0.0030849188, "MEAN_MOTION_DOT": 0.00017585, "MEAN_MOTION_DDOT": 0}, "tle": {"line1": "1 29856U 99025FA  25345.74448584  .00017585  00000+0  30849-2 0  9999", "line2": "2 29856  98.6883  79.6754 0262534 300.8883 213.3448 14.47705703963601"}}, "geometry": {"type": "Point", "coordinates": [-106.84232015916325, -38.66774530708765]}}, {"type": "Feature", "properties": {"norad_id": 29857, "name": "FENGYUN 1C DEB", "group": "fengyun-1c-debris", "lat": 37.67218218639902, "lon": -179.80432396859987, "alt_km": 1081.0049007943026, "timestamp": "2025-12-12T05:47:29.042733+00:00", "meta": {"OBJECT_NAME": "FENGYUN 1C DEB", "OBJECT_ID": "1999-025FB", "EPOCH": "2025-12-11T23:52:49.064448", "MEAN_MOTION": 13.81875305, "ECCENTRICITY": 0.01927656, "INCLINATION": 98.4235, "RA_OF_ASC_NODE": 353.4059, "ARG_OF_PERICENTER": 296.4385, "MEAN_ANOMALY": 61.7106, "EPHEMERIS_TYPE": 0, "CLASSIFICATION_TYPE": "U", "NORAD_CAT_ID": 29857, "ELEMENT_SET_NO": 999, "REV_AT_EPOCH": 94765, "BSTAR": 0.0024822642, "MEAN_MOTION_DOT": 3.027e-05, "MEAN_MOTION_DDOT": 0}, "tle": {"line1": "1 29857U 99025FB  25345.99501232  .00003027  00000+0  24823-2 0  9998", "line2": "2 29857  98.4235 353.4059 0192765 296.4385  61.7106 13.81875305947653"}}, "geometry": {"type": "Point", "coordinates": [-179.80432396859987, 37.67218218639902]}}, {"type": "Feature", "properties": {"norad_id": 29858, "name": "FENGYUN 1C DEB", "group": "fengyun-1c-debris", "lat": 50.39281301623942, "lon": 76.57243836183379, "alt_km": 825.3821078647388, "timestamp": "2025-12-12T05:47:29.042743+00:00", "meta": {"OBJECT_NAME": "FENGYUN 1C DEB", "OBJECT_ID": "1999-025FC", "EPOCH": "2025-12-09T13:08:49.517376", "MEAN_MOTION": 13.77776148, "ECCENTRICITY": 0.0198682, "INCLINATION": 99.213, "RA_OF_ASC_NODE": 85.2693, "ARG_OF_PERICENTER": 72.8435, "MEAN_ANOMALY": 306.3548, "EPHEMERIS_TYPE": 0, "CLASSIFICATION_TYPE": "U", "NORAD_CAT_ID": 29858, "ELEMENT_SET_NO": 999, "REV_AT_EPOCH": 94510, "BSTAR": 0.0016634, "MEAN_MOTION_DOT": 1.884e-05, "MEAN_MOTION_DDOT": 0}, "tle": {"line1": "1 29858U 99025FC  25343.54779534  .00001884  00000+0  16634-2 0  9990", "line2": "2 29858  99.2130  85.2693 0198682  72.8435 306.3548 13.77776148945103"}}, "geometry": {"type": "Point", "coordinates": [76.57243836183379, 50.39281301623942]}}, {"type": "Feature", "properties": {"norad_id": 29859, "name": "FENGYUN 1C DEB", "group": "fengyun-1c-debris", "lat": -22.15974790733014, "lon": -175.55737594450085, "alt_km": 1105.3658997597013, "timestamp": "2025-12-12T05:47:29.042753+00:00", "meta": {"OBJECT_NAME": "FENGYUN 1C DEB", "OBJECT_ID": "1999-025FD", "EPOCH": "2025-12-11T12:25:40.001376", "MEAN_MOTION": 13.74023449, "ECCENTRICITY": 0.02950111, "INCLINATION": 98.3355, "RA_OF_ASC_NODE": 180.3872, "ARG_OF_PERICENTER": 216.2781, "MEAN_ANOMALY": 141.8046, "EPHEMERIS_TYPE": 0, "CLASSIFICATION_TYPE": "U", "NORAD_CAT_ID": 29859, "ELEMENT_SET_NO": 999, "REV_AT_EPOCH": 93963, "BSTAR": 0.0043599827, "MEAN_MOTION_DOT": 5.574e-05, "MEAN_MOTION_DDOT": 0}, "tle": {"line1": "1 29859U 99025FD  25345.51782409  .00005574  00000+0  43600-2 0  9998", "line2": "2 29859  98.3355 180.3872 0295011 216.2781 141.8046 13.74023449939633"}}, "geometry": {"type": "Point", "coordinates": [-175.55737594450085, -22.15974790733014]}}, {"type": "Feature", "properties": {"norad_id": 29860, "name": "FENGYUN 1C DEB", "group": "fengyun-1c-debris", "lat": 66.45773353389923, "lon": -139.43199160581355, "alt_km": 1062.3306945363192, "timestamp": "2025-12-12T05:47:29.042763+00:00", "meta": {"OBJECT_NAME": "FENGYUN 1C DEB", "OBJECT_ID": "1999-025FE", "EPOCH": "2025-12-12T00:21:13.624128", "MEAN_MOTION": 13.77522504, "ECCENTRICITY": 0.0220977, "INCLINATION": 98.6177, "RA_OF_ASC_NODE": 19.9938, "ARG_OF_PERICENTER": 345.2554, "MEAN_ANOMALY": 81.7055, "EPHEMERIS_TYPE": 0, "CLASSIFICATION_TYPE": "U", "NORAD_CAT_ID": 29860, "ELEMENT_SET_NO": 999, "REV_AT_EPOCH": 94129, "BSTAR": 0.0033801091, "MEAN_MOTION_DOT": 3.994e-05, "MEAN_MOTION_DDOT": 0}, "tle": {"line1": "1 29860U 99025FE  25346.01474102  .00003994  00000+0  33801-2 0  9990", "line2": "2 29860  98.6177  19.9938 0220977 345.2554  81.7055 13.77522504941296"}}, "geometry": {"type": "Point", "coordinates": [-139.43199160581355, 66.45773353389923]}}, {"type": "Feature", "properties": {"norad_id": 29865, "name": "FENGYUN 1C DEB", "group": "fengyun-1c-debris", "lat": 15.114291029976222, "lon": -105.49355449694218, "alt_km": 670.8798003565416, "timestamp": "2025-12-12T05:47:29.042773+00:00", "meta": {"OBJECT_NAME": "FENGYUN 1C DEB", "OBJECT_ID": "1999-025FK", "EPOCH": "2025-12-11T12:41:51.648000", "MEAN_MOTION": 14.82575039, "ECCENTRICITY": 0.01163234, "INCLINATION": 98.9196, "RA_OF_ASC_NODE": 256.1438, "ARG_OF_PERICENTER": 145.1068, "MEAN_ANOMALY": 32.2002, "EPHEMERIS_TYPE": 0, "CLASSIFICATION_TYPE": "U", "NORAD_CAT_ID": 29865, "ELEMENT_SET_NO": 999, "REV_AT_EPOCH": 740, "BSTAR": 0.0012415456, "MEAN_MOTION_DOT": 0.00011187, "MEAN_MOTION_DDOT": 0}, "tle": {"line1": "1 29865U 99025FK  25345.52907000  .00011187  00000+0  12415-2 0  9999", "line2": "2 29865  98.9196 256.1438 0116323 145.1068  32.2002 14.82575039  7408"}}, "geometry": {"type": "Point", "coordinates": [-105.49355449694218, 15.114291029976222]}}, {"type": "Feature", "properties": {"norad_id": 29866, "name": "FENGYUN 1C DEB", "group": "fengyun-1c-debris", "lat": 2.193007172712157, "lon": 152.29477392737567, "alt_km": 574.3658367494518, "timestamp": "2025-12-12T05:47:29.042783+00:00", "meta": {"OBJECT_NAME": "FENGYUN 1C DEB", "OBJECT_ID": "1999-025FL", "EPOCH": "2025-12-11T22:32:28.923360", "MEAN_MOTION": 14.64208708, "ECCENTRICITY": 0.01943195, "INCLINATION": 98.0377, "RA_OF_ASC_NODE": 331.6897, "ARG_OF_PERICENTER": 217.4043, "MEAN_ANOMALY": 170.2571, "EPHEMERIS_TYPE": 0, "CLASSIFICATION_TYPE": "U", "NORAD_CAT_ID": 29866, "ELEMENT_SET_NO": 999, "REV_AT_EPOCH": 315, "BSTAR": 0.00044493081, "MEAN_MOTION_DOT": 3.029e-05, "MEAN_MOTION_DDOT": 0}, "tle": {"line1": "1 29866U 99025FL  25345.93922365  .00003029  00000+0  44493-3 0  9994", "line2": "2 29866  98.0377 331.6897 0194319 217.4043 170.2571 14.64208708  3154"}}, "geometry": {"type": "Point", "coordinates": [152.29477392737567, 2.193007172712157]}}]}